NORAD_CAT_ID,OBJECT_NAME,OBJECT_TYPE,EPOCH,MEAN_MOTION,ECCENTRICITY,INCLINATION,RA_OF_ASC_NODE,ARG_OF_PERICENTER,MEAN_ANOMALY,BSTAR,MEAN_MOTION_DOT,MEAN_MOTION_DDOT,TLE_LINE0,TLE_LINE1,TLE_LINE2,SEMIMAJOR_AXIS,PERIOD,APOGEE,PERIGEE,DECAYED
54797.0,STARLINK-5435,PAYLOAD,2023-03-26 18:31:39,15.08822024,0.0001415,53.2176,207.2399,90.168,269.9474,0.00076788,0.00011948,0.0,0 STARLINK-5435,1 54797U 22175AR  23085.77198958  .00011948  00000-0  76788-3 0  9993,2 54797  53.2176 207.2399 0001415  90.1680 269.9474 15.08822024 17040,6917.935,95.439,540.779,538.821,0.0
54797.0,STARLINK-5435,PAYLOAD,2023-03-27 13:36:17,15.08850818,0.0001523,53.2174,203.6732,88.1132,272.0035,0.00084692,0.0001322,0.0,0 STARLINK-5435,1 54797U 22175AR  23086.56686761  .00013220  00000-0  84692-3 0  9993,2 54797  53.2174 203.6732 0001523  88.1132 272.0035 15.08850818 17161,6917.847,95.437,540.766,538.659,0.0
54797.0,STARLINK-5435,PAYLOAD,2023-03-27 15:11:40,15.08859051,0.0001534,53.2176,203.3762,82.2408,277.8759,0.0010157,0.00015922,0.0,0 STARLINK-5435,1 54797U 22175AR  23086.63310621  .00015922  00000-0  10157-2 0  9995,2 54797  53.2176 203.3762 0001534  82.2408 277.8759 15.08859051 15012,6917.822,95.436,540.748,538.626,0.0
54797.0,STARLINK-5435,PAYLOAD,2023-03-28 00:43:59,15.08856219,0.0001392,53.2173,201.5963,90.6289,269.4862,0.00051317,7.892e-05,0.0,0 STARLINK-5435,1 54797U 22175AR  23087.03054464  .00007892  00000-0  51317-3 0  9991,2 54797  53.2173 201.5963 0001392  90.6289 269.4862 15.08856219 15075,6917.831,95.437,540.659,538.733,0.0
54797.0,STARLINK-5435,PAYLOAD,2023-03-28 13:27:04,15.08847579,0.0001794,53.2171,199.2154,87.3752,272.7446,0.00010893,1.446e-05,0.0,0 STARLINK-5435,1 54797U 22175AR  23087.56046462  .00001446  00000-0  10893-3 0  9991,2 54797  53.2171 199.2154 0001794  87.3752 272.7446 15.08847579 15155,6917.857,95.437,540.963,538.481,0.0
54797.0,STARLINK-5435,PAYLOAD,2023-03-28 15:02:27,15.08852399,0.0001589,53.217,198.9178,86.2336,273.8838,0.00033372,5.029e-05,0.0,0 STARLINK-5435,1 54797U 22175AR  23087.62670336  .00005029  00000-0  33372-3 0  9999,2 54797  53.2170 198.9178 0001589  86.2336 273.8838 15.08852399 17328,6917.842,95.437,540.807,538.608,0.0
54797.0,STARLINK-5435,PAYLOAD,2023-03-29 13:17:50,15.08846525,0.0001388,53.2169,194.7558,87.3397,272.7754,0.00012768,1.745e-05,0.0,0 STARLINK-5435,1 54797U 22175AR  23088.55406145  .00001745  00000-0  12768-3 0  9994,2 54797  53.2169 194.7558 0001388  87.3397 272.7754 15.08846525 17462,6917.86,95.437,540.686,538.765,0.0
54797.0,STARLINK-5435,PAYLOAD,2023-03-30 13:08:38,15.08832861,0.0001764,53.2181,190.2971,84.3621,275.7572,3.895e-05,3.32e-06,0.0,0 STARLINK-5435,1 54797U 22175AR  23089.54767208  .00000332  00000-0  38950-4 0  9997,2 54797  53.2181 190.2971 0001764  84.3621 275.7572 15.08832861 15457,6917.902,95.438,540.988,538.547,0.0
54797.0,STARLINK-5435,PAYLOAD,2023-03-31 11:24:02,15.08857525,0.0001333,53.2167,186.1299,87.4093,272.7052,0.00055349,8.536e-05,0.0,0 STARLINK-5435,1 54797U 22175AR  23090.47502393  .00008536  00000-0  55349-3 0  9997,2 54797  53.2167 186.1299 0001333  87.4093 272.7052 15.08857525 15596,6917.827,95.436,540.614,538.77,0.0
54797.0,STARLINK-5435,PAYLOAD,2023-03-31 16:10:10,15.0887429,0.0001408,53.2162,185.2355,92.7657,267.3497,0.00095483,0.00014955,0.0,0 STARLINK-5435,1 54797U 22175AR  23090.67373768  .00014955  00000-0  95483-3 0  9996,2 54797  53.2162 185.2355 0001408  92.7657 267.3497 15.08874290 15627,6917.776,95.435,540.615,538.667,0.0
54797.0,STARLINK-5435,PAYLOAD,2023-04-01 04:53:16,15.08834551,6.34e-05,53.2168,182.8589,79.5927,280.5137,-0.0002275,-3.906e-05,0.0,0 STARLINK-5435,1 54797U 22175AR  23091.20366642 -.00003906  00000-0 -22750-3 0  9992,2 54797  53.2168 182.8589 0000634  79.5927 280.5137 15.08834551 15701,6917.897,95.438,540.201,539.323,0.0
54797.0,STARLINK-5435,PAYLOAD,2023-04-01 11:14:49,15.08831344,0.0001139,53.2169,181.6691,96.8257,263.2865,-0.00022034,-3.792e-05,0.0,0 STARLINK-5435,1 54797U 22175AR  23091.46862753 -.00003792  00000-0 -22034-3 0  9992,2 54797  53.2169 181.6691 0001139  96.8257 263.2865 15.08831344 17909,6917.907,95.438,540.56,538.984,0.0
54797.0,STARLINK-5435,PAYLOAD,2023-04-02 12:40:59,15.08856553,0.0001252,53.2177,176.9118,96.1368,263.9767,0.0010394,0.000163,0.0,0 STARLINK-5435,1 54797U 22175AR  23092.52846941  .00016300  00000-0  10394-2 0  9993,2 54797  53.2177 176.9118 0001252  96.1368 263.9767 15.08856553 15906,6917.83,95.437,540.561,538.829,0.0
54797.0,STARLINK-5435,PAYLOAD,2023-04-03 04:34:51,15.08847193,0.0001449,53.2186,173.9402,107.0296,253.0855,0.0003171,4.763e-05,0.0,0 STARLINK-5435,1 54797U 22175AR  23093.19086865  .00004763  00000-0  31710-3 0  9994,2 54797  53.2186 173.9402 0001449 107.0296 253.0855 15.08847193 16009,6917.858,95.437,540.726,538.721,0.0
54797.0,STARLINK-5435,PAYLOAD,2023-04-03 10:56:23,15.08839845,0.0001691,53.2194,172.7509,110.3238,249.7936,9.2392e-06,-1.41e-06,0.0,0 STARLINK-5435,1 54797U 22175AR  23093.45583213 -.00000141  00000-0  92392-5 0  9994,2 54797  53.2194 172.7509 0001691 110.3238 249.7936 15.08839845 16046,6917.881,95.438,540.916,538.576,0.0
54797.0,STARLINK-5435,PAYLOAD,2023-04-04 10:47:10,15.08849647,0.0001432,53.2176,168.2894,103.4422,256.6729,0.000307,4.603e-05,0.0,0 STARLINK-5435,1 54797U 22175AR  23094.44942902  .00004603  00000-0  30700-3 0  9997,2 54797  53.2176 168.2894 0001432 103.4422 256.6729 15.08849647 18358,6917.851,95.437,540.707,538.725,0.0
54797.0,STARLINK-5435,PAYLOAD,2023-04-05 04:16:25,15.08837705,0.0001674,53.2186,165.0198,107.3512,252.7664,3.5333e-05,2.74e-06,0.0,0 STARLINK-5435,1 54797U 22175AR  23095.17807329  .00000274  00000-0  35333-4 0  9999,2 54797  53.2186 165.0198 0001674 107.3512 252.7664 15.08837705 16302,6917.887,95.438,540.91,538.594,0.0
54797.0,STARLINK-5435,PAYLOAD,2023-04-05 12:13:21,15.0883684,0.0001492,53.2172,163.5311,105.0594,255.0563,4.9606e-05,5.02e-06,0.0,0 STARLINK-5435,1 54797U 22175AR  23095.50927648  .00000502  00000-0  49606-4 0  9995,2 54797  53.2172 163.5311 0001492 105.0594 255.0563 15.08836840 18518,6917.89,95.438,540.787,538.723,0.0
54797.0,STARLINK-5435,PAYLOAD,2023-04-06 10:28:45,15.08840416,0.0001876,53.2168,159.3683,92.8522,267.2685,0.00032366,4.867e-05,0.0,0 STARLINK-5435,1 54797U 22175AR  23096.43663785  .00004867  00000-0  32366-3 0  9999,2 54797  53.2168 159.3683 0001876  92.8522 267.2685 15.08840416 16497,6917.879,95.438,541.042,538.446,0.0
54797.0,STARLINK-5435,PAYLOAD,2023-04-06 21:36:27,15.08845716,0.0001596,53.217,157.2873,83.0787,277.0386,0.00021683,3.165e-05,0.0,0 STARLINK-5435,1 54797U 22175AR  23096.90031428  .00003165  00000-0  21683-3 0  9994,2 54797  53.2170 157.2873 0001596  83.0787 277.0386 15.08845716 18725,6917.863,95.437,540.832,538.624,0.0
54797.0,STARLINK-5435,PAYLOAD,2023-04-07 10:19:32,15.08842022,0.0001728,53.2171,154.9092,82.4111,277.7078,0.00015454,2.172e-05,0.0,0 STARLINK-5435,1 54797U 22175AR  23097.43023679  .00002172  00000-0  15454-3 0  9998,2 54797  53.2171 154.9092 0001728  82.4111 277.7078 15.08842022 18805,6917.874,95.437,540.935,538.544,0.0
54797.0,STARLINK-5435,PAYLOAD,2023-04-08 10:10:19,15.08844505,0.0001571,53.2171,150.4468,99.3666,260.7504,4.4979e-05,4.28e-06,0.0,0 STARLINK-5435,1 54797U 22175AR  23098.42383211  .00000428  00000-0  44979-4 0  9996,2 54797  53.2171 150.4468 0001571  99.3666 260.7504 15.08844505 18951,6917.867,95.437,540.818,538.645,0.0
54797.0,STARLINK-5435,PAYLOAD,2023-04-09 03:39:33,15.08838141,0.0001522,53.2168,147.1759,98.3008,261.8157,4.6998e-05,4.6e-06,0.0,0 STARLINK-5435,1 54797U 22175AR  23099.15247527  .00000460  00000-0  46998-4 0  9995,2 54797  53.2168 147.1759 0001522  98.3008 261.8157 15.08838141 16906,6917.886,95.438,540.804,538.698,0.0
54797.0,STARLINK-5435,PAYLOAD,2023-04-09 10:01:06,15.08839187,0.0001651,53.2181,145.9868,108.3871,251.73,2.4741e-05,1.06e-06,0.0,0 STARLINK-5435,1 54797U 22175AR  23099.41743423  .00000106  00000-0  24741-4 0  9999,2 54797  53.2181 145.9868 0001651 108.3871 251.7300 15.08839187 19105,6917.883,95.438,540.89,538.606,0.0
54797.0,STARLINK-5435,PAYLOAD,2023-04-09 19:33:25,15.08836732,0.0001602,53.2179,144.2026,107.8835,252.2332,2.3155e-05,8e-07,0.0,0 STARLINK-5435,1 54797U 22175AR  23099.81487636  .00000080  00000-0  23155-4 0  9993,2 54797  53.2179 144.2026 0001602 107.8835 252.2332 15.08836732 19160,6917.89,95.438,540.864,538.647,0.0
54797.0,STARLINK-5435,PAYLOAD,2023-04-10 08:16:30,15.0883824,0.0001552,53.2177,141.8235,107.7016,252.4146,4.2918e-05,3.95e-06,0.0,0 STARLINK-5435,1 54797U 22175AR  23100.34479554  .00000395  00000-0  42918-4 0  9991,2 54797  53.2177 141.8235 0001552 107.7016 252.4146 15.08838240 17087,6917.886,95.438,540.824,538.677,0.0
54797.0,STARLINK-5435,PAYLOAD,2023-04-10 19:24:12,15.08839881,0.000148,53.2179,139.7425,103.5409,256.5748,7.9126e-05,9.72e-06,0.0,0 STARLINK-5435,1 54797U 22175AR  23100.80847380  .00000972  00000-0  79126-4 0  9990,2 54797  53.2179 139.7425 0001480 103.5409 256.5748 15.08839881 19319,6917.881,95.438,540.77,538.722,0.0
54797.0,STARLINK-5435,PAYLOAD,2023-04-11 09:42:40,15.08839124,0.0001469,53.2182,137.0663,104.8581,255.2574,6.2636e-05,7.09e-06,0.0,0 STARLINK-5435,1 54797U 22175AR  23101.40463542  .00000709  00000-0  62636-4 0  9997,2 54797  53.2182 137.0663 0001469 104.8581 255.2574 15.08839124 19403,6917.883,95.438,540.764,538.732,0.0
54797.0,STARLINK-5435,PAYLOAD,2023-04-12 09:33:28,15.08833876,0.0001376,53.2183,132.6054,99.4181,260.6966,-1.4763e-05,-5.23e-06,0.0,0 STARLINK-5435,1 54797U 22175AR  23102.39824355 -.00000523  00000-0 -14763-4 0  9993,2 54797  53.2183 132.6054 0001376  99.4181 260.6966 15.08833876 17390,6917.899,95.438,540.716,538.812,0.0
54797.0,STARLINK-5435,PAYLOAD,2023-04-13 07:48:52,15.08838025,0.0001353,53.2174,128.4422,79.9967,280.1178,3.5223e-05,2.73e-06,0.0,0 STARLINK-5435,1 54797U 22175AR  23103.32560269  .00000273  00000-0  35223-4 0  9992,2 54797  53.2174 128.4422 0001353  79.9967 280.1178 15.08838025 19690,6917.886,95.438,540.687,538.815,0.0
